IRIDIUM 180             
1 43922U 19002A   25076.78007884  .00000724  00000+0  25146-3 0  9997
2 43922  86.4045 184.3297 0002194  95.8401 264.3045 14.34216825323576
IRIDIUM 176             
1 43923U 19002B   25076.89178324  .00003397  00000+0  53448-3 0  9993
2 43923  86.6169 184.2837 0002740  98.9075 261.2452 14.72268972332113
IRIDIUM 168             
1 43924U 19002C   25076.70397032  .00000035  00000+0  54863-5 0  9993
2 43924  86.4052 184.4262 0002183  99.9213 260.2229 14.34216873323542
IRIDIUM 169             
1 43926U 19002E   25076.89706447  .00001105  00000+0  35458-3 0  9995
2 43926  86.4255 215.8230 0003159  67.0465 293.1066 14.38627318324620
IRIDIUM 172             
1 43927U 19002F   25076.75470921  .00000991  00000+0  34662-3 0  9994
2 43927  86.4047 184.3190 0002276 100.0248 260.1205 14.34216926323545
IRIDIUM 175             
1 43928U 19002G   25076.61468262  .00002376  00000+0  37284-3 0  9997
2 43928  86.1524 142.1584 0001953  67.9642 292.1782 14.72255427332065
